{
  "type": "FeatureCollection",
  "name": "NELAYA-AI FGI Temporal Memory Preview",
  "features": [
    {
      "type": "Feature",
      "geometry": {
        "type": "Point",
        "coordinates": [
          95.70833333333333,
          3.958333333333333
        ]
      },
      "properties": {
        "score_var": "temporal_memory_confidence_adjusted",
        "temporal_memory_confidence_adjusted": 0.5372756334598477,
        "today_physics_support_score": null,
        "weighted_physics_support_score": 0.37069455491299325,
        "persistence_score": 1.0,
        "stability_score": 0.9229583575805421,
        "temporal_confidence": 0.64,
        "label": "FGI v0.7 temporal memory candidate",
        "note": "GeoJSON uses confidence-adjusted temporal memory when available."
      }
    },
    {
      "type": "Feature",
      "geometry": {
        "type": "Point",
        "coordinates": [
          95.70833333333333,
          3.8749999999999987
        ]
      },
      "properties": {
        "score_var": "temporal_memory_confidence_adjusted",
        "temporal_memory_confidence_adjusted": 0.49191943373221486,
        "today_physics_support_score": null,
        "weighted_physics_support_score": 0.2396492287052383,
        "persistence_score": 1.0,
        "stability_score": 0.921751596589551,
        "temporal_confidence": 0.64,
        "label": "FGI v0.7 temporal memory candidate",
        "note": "GeoJSON uses confidence-adjusted temporal memory when available."
      }
    },
    {
      "type": "Feature",
      "geometry": {
        "type": "Point",
        "coordinates": [
          98.04166666666666,
          6.458333333333333
        ]
      },
      "properties": {
        "score_var": "temporal_memory_confidence_adjusted",
        "temporal_memory_confidence_adjusted": 0.47198173565968177,
        "today_physics_support_score": null,
        "weighted_physics_support_score": 0.302266588048068,
        "persistence_score": 1.0,
        "stability_score": 1.0,
        "temporal_confidence": 0.52,
        "label": "FGI v0.7 temporal memory candidate",
        "note": "GeoJSON uses confidence-adjusted temporal memory when available."
      }
    },
    {
      "type": "Feature",
      "geometry": {
        "type": "Point",
        "coordinates": [
          97.70833333333333,
          6.208333333333333
        ]
      },
      "properties": {
        "score_var": "temporal_memory_confidence_adjusted",
        "temporal_memory_confidence_adjusted": 0.4710673597059337,
        "today_physics_support_score": null,
        "weighted_physics_support_score": 0.2993131773447471,
        "persistence_score": 1.0,
        "stability_score": 1.0,
        "temporal_confidence": 0.52,
        "label": "FGI v0.7 temporal memory candidate",
        "note": "GeoJSON uses confidence-adjusted temporal memory when available."
      }
    },
    {
      "type": "Feature",
      "geometry": {
        "type": "Point",
        "coordinates": [
          97.95833333333333,
          6.374999999999998
        ]
      },
      "properties": {
        "score_var": "temporal_memory_confidence_adjusted",
        "temporal_memory_confidence_adjusted": 0.4703787071224792,
        "today_physics_support_score": null,
        "weighted_physics_support_score": 0.2970888472948298,
        "persistence_score": 1.0,
        "stability_score": 1.0,
        "temporal_confidence": 0.52,
        "label": "FGI v0.7 temporal memory candidate",
        "note": "GeoJSON uses confidence-adjusted temporal memory when available."
      }
    },
    {
      "type": "Feature",
      "geometry": {
        "type": "Point",
        "coordinates": [
          97.79166666666666,
          6.208333333333333
        ]
      },
      "properties": {
        "score_var": "temporal_memory_confidence_adjusted",
        "temporal_memory_confidence_adjusted": 0.4700601115357943,
        "today_physics_support_score": null,
        "weighted_physics_support_score": 0.29605979178228126,
        "persistence_score": 1.0,
        "stability_score": 1.0,
        "temporal_confidence": 0.52,
        "label": "FGI v0.7 temporal memory candidate",
        "note": "GeoJSON uses confidence-adjusted temporal memory when available."
      }
    },
    {
      "type": "Feature",
      "geometry": {
        "type": "Point",
        "coordinates": [
          97.54166666666666,
          5.624999999999998
        ]
      },
      "properties": {
        "score_var": "temporal_memory_confidence_adjusted",
        "temporal_memory_confidence_adjusted": 0.4685447696401474,
        "today_physics_support_score": null,
        "weighted_physics_support_score": 0.2911652766154634,
        "persistence_score": 1.0,
        "stability_score": 1.0,
        "temporal_confidence": 0.52,
        "label": "FGI v0.7 temporal memory candidate",
        "note": "GeoJSON uses confidence-adjusted temporal memory when available."
      }
    },
    {
      "type": "Feature",
      "geometry": {
        "type": "Point",
        "coordinates": [
          97.875,
          6.291666666666666
        ]
      },
      "properties": {
        "score_var": "temporal_memory_confidence_adjusted",
        "temporal_memory_confidence_adjusted": 0.46805100418194345,
        "today_physics_support_score": null,
        "weighted_physics_support_score": 0.2895704269442622,
        "persistence_score": 1.0,
        "stability_score": 1.0,
        "temporal_confidence": 0.52,
        "label": "FGI v0.7 temporal memory candidate",
        "note": "GeoJSON uses confidence-adjusted temporal memory when available."
      }
    },
    {
      "type": "Feature",
      "geometry": {
        "type": "Point",
        "coordinates": [
          95.45833333333333,
          2.8749999999999987
        ]
      },
      "properties": {
        "score_var": "temporal_memory_confidence_adjusted",
        "temporal_memory_confidence_adjusted": 0.4659329918615897,
        "today_physics_support_score": null,
        "weighted_physics_support_score": 0.2827293018785199,
        "persistence_score": 1.0,
        "stability_score": 1.0,
        "temporal_confidence": 0.52,
        "label": "FGI v0.7 temporal memory candidate",
        "note": "GeoJSON uses confidence-adjusted temporal memory when available."
      }
    },
    {
      "type": "Feature",
      "geometry": {
        "type": "Point",
        "coordinates": [
          97.70833333333333,
          6.124999999999998
        ]
      },
      "properties": {
        "score_var": "temporal_memory_confidence_adjusted",
        "temporal_memory_confidence_adjusted": 0.46370170086954166,
        "today_physics_support_score": null,
        "weighted_physics_support_score": 0.27552228963030273,
        "persistence_score": 1.0,
        "stability_score": 1.0,
        "temporal_confidence": 0.52,
        "label": "FGI v0.7 temporal memory candidate",
        "note": "GeoJSON uses confidence-adjusted temporal memory when available."
      }
    },
    {
      "type": "Feature",
      "geometry": {
        "type": "Point",
        "coordinates": [
          97.625,
          6.208333333333333
        ]
      },
      "properties": {
        "score_var": "temporal_memory_confidence_adjusted",
        "temporal_memory_confidence_adjusted": 0.4634552807299159,
        "today_physics_support_score": null,
        "weighted_physics_support_score": 0.2747263589467568,
        "persistence_score": 1.0,
        "stability_score": 1.0,
        "temporal_confidence": 0.52,
        "label": "FGI v0.7 temporal memory candidate",
        "note": "GeoJSON uses confidence-adjusted temporal memory when available."
      }
    },
    {
      "type": "Feature",
      "geometry": {
        "type": "Point",
        "coordinates": [
          97.79166666666666,
          6.291666666666666
        ]
      },
      "properties": {
        "score_var": "temporal_memory_confidence_adjusted",
        "temporal_memory_confidence_adjusted": 0.4628018745948993,
        "today_physics_support_score": null,
        "weighted_physics_support_score": 0.2726158740145328,
        "persistence_score": 1.0,
        "stability_score": 1.0,
        "temporal_confidence": 0.52,
        "label": "FGI v0.7 temporal memory candidate",
        "note": "GeoJSON uses confidence-adjusted temporal memory when available."
      }
    },
    {
      "type": "Feature",
      "geometry": {
        "type": "Point",
        "coordinates": [
          98.04166666666666,
          6.624999999999998
        ]
      },
      "properties": {
        "score_var": "temporal_memory_confidence_adjusted",
        "temporal_memory_confidence_adjusted": 0.4620153199671313,
        "today_physics_support_score": null,
        "weighted_physics_support_score": 0.27007532289125097,
        "persistence_score": 1.0,
        "stability_score": 1.0,
        "temporal_confidence": 0.52,
        "label": "FGI v0.7 temporal memory candidate",
        "note": "GeoJSON uses confidence-adjusted temporal memory when available."
      }
    },
    {
      "type": "Feature",
      "geometry": {
        "type": "Point",
        "coordinates": [
          97.70833333333333,
          5.958333333333333
        ]
      },
      "properties": {
        "score_var": "temporal_memory_confidence_adjusted",
        "temporal_memory_confidence_adjusted": 0.46187042078954754,
        "today_physics_support_score": null,
        "weighted_physics_support_score": 0.26960730229182045,
        "persistence_score": 1.0,
        "stability_score": 1.0,
        "temporal_confidence": 0.52,
        "label": "FGI v0.7 temporal memory candidate",
        "note": "GeoJSON uses confidence-adjusted temporal memory when available."
      }
    },
    {
      "type": "Feature",
      "geometry": {
        "type": "Point",
        "coordinates": [
          97.54166666666666,
          5.791666666666666
        ]
      },
      "properties": {
        "score_var": "temporal_memory_confidence_adjusted",
        "temporal_memory_confidence_adjusted": 0.46177496758902353,
        "today_physics_support_score": null,
        "weighted_physics_support_score": 0.26929899092061893,
        "persistence_score": 1.0,
        "stability_score": 1.0,
        "temporal_confidence": 0.52,
        "label": "FGI v0.7 temporal memory candidate",
        "note": "GeoJSON uses confidence-adjusted temporal memory when available."
      }
    },
    {
      "type": "Feature",
      "geometry": {
        "type": "Point",
        "coordinates": [
          98.125,
          6.458333333333333
        ]
      },
      "properties": {
        "score_var": "temporal_memory_confidence_adjusted",
        "temporal_memory_confidence_adjusted": 0.4610032315328502,
        "today_physics_support_score": null,
        "weighted_physics_support_score": 0.26680630340067935,
        "persistence_score": 1.0,
        "stability_score": 1.0,
        "temporal_confidence": 0.52,
        "label": "FGI v0.7 temporal memory candidate",
        "note": "GeoJSON uses confidence-adjusted temporal memory when available."
      }
    },
    {
      "type": "Feature",
      "geometry": {
        "type": "Point",
        "coordinates": [
          97.54166666666666,
          5.541666666666666
        ]
      },
      "properties": {
        "score_var": "temporal_memory_confidence_adjusted",
        "temporal_memory_confidence_adjusted": 0.45965653782238713,
        "today_physics_support_score": null,
        "weighted_physics_support_score": 0.2624565175141703,
        "persistence_score": 1.0,
        "stability_score": 1.0,
        "temporal_confidence": 0.52,
        "label": "FGI v0.7 temporal memory candidate",
        "note": "GeoJSON uses confidence-adjusted temporal memory when available."
      }
    },
    {
      "type": "Feature",
      "geometry": {
        "type": "Point",
        "coordinates": [
          98.04166666666666,
          6.291666666666666
        ]
      },
      "properties": {
        "score_var": "temporal_memory_confidence_adjusted",
        "temporal_memory_confidence_adjusted": 0.45916133218091226,
        "today_physics_support_score": null,
        "weighted_physics_support_score": 0.26085701608821804,
        "persistence_score": 1.0,
        "stability_score": 1.0,
        "temporal_confidence": 0.52,
        "label": "FGI v0.7 temporal memory candidate",
        "note": "GeoJSON uses confidence-adjusted temporal memory when available."
      }
    },
    {
      "type": "Feature",
      "geometry": {
        "type": "Point",
        "coordinates": [
          94.95833333333333,
          5.458333333333333
        ]
      },
      "properties": {
        "score_var": "temporal_memory_confidence_adjusted",
        "temporal_memory_confidence_adjusted": 0.45896782728754,
        "today_physics_support_score": null,
        "weighted_physics_support_score": 0.26023200028275206,
        "persistence_score": 1.0,
        "stability_score": 1.0,
        "temporal_confidence": 0.52,
        "label": "FGI v0.7 temporal memory candidate",
        "note": "GeoJSON uses confidence-adjusted temporal memory when available."
      }
    },
    {
      "type": "Feature",
      "geometry": {
        "type": "Point",
        "coordinates": [
          97.79166666666666,
          6.124999999999998
        ]
      },
      "properties": {
        "score_var": "temporal_memory_confidence_adjusted",
        "temporal_memory_confidence_adjusted": 0.457915006413982,
        "today_physics_support_score": null,
        "weighted_physics_support_score": 0.2568314160658333,
        "persistence_score": 1.0,
        "stability_score": 1.0,
        "temporal_confidence": 0.52,
        "label": "FGI v0.7 temporal memory candidate",
        "note": "GeoJSON uses confidence-adjusted temporal memory when available."
      }
    },
    {
      "type": "Feature",
      "geometry": {
        "type": "Point",
        "coordinates": [
          98.04166666666666,
          6.208333333333333
        ]
      },
      "properties": {
        "score_var": "temporal_memory_confidence_adjusted",
        "temporal_memory_confidence_adjusted": 0.4577125397658527,
        "today_physics_support_score": null,
        "weighted_physics_support_score": 0.2561774540240723,
        "persistence_score": 1.0,
        "stability_score": 1.0,
        "temporal_confidence": 0.52,
        "label": "FGI v0.7 temporal memory candidate",
        "note": "GeoJSON uses confidence-adjusted temporal memory when available."
      }
    },
    {
      "type": "Feature",
      "geometry": {
        "type": "Point",
        "coordinates": [
          97.95833333333333,
          6.208333333333333
        ]
      },
      "properties": {
        "score_var": "temporal_memory_confidence_adjusted",
        "temporal_memory_confidence_adjusted": 0.4576594500165941,
        "today_physics_support_score": null,
        "weighted_physics_support_score": 0.25600597550579496,
        "persistence_score": 1.0,
        "stability_score": 1.0,
        "temporal_confidence": 0.52,
        "label": "FGI v0.7 temporal memory candidate",
        "note": "GeoJSON uses confidence-adjusted temporal memory when available."
      }
    },
    {
      "type": "Feature",
      "geometry": {
        "type": "Point",
        "coordinates": [
          97.70833333333333,
          6.041666666666666
        ]
      },
      "properties": {
        "score_var": "temporal_memory_confidence_adjusted",
        "temporal_memory_confidence_adjusted": 0.45707636242595595,
        "today_physics_support_score": null,
        "weighted_physics_support_score": 0.2541226176548965,
        "persistence_score": 1.0,
        "stability_score": 1.0,
        "temporal_confidence": 0.52,
        "label": "FGI v0.7 temporal memory candidate",
        "note": "GeoJSON uses confidence-adjusted temporal memory when available."
      }
    },
    {
      "type": "Feature",
      "geometry": {
        "type": "Point",
        "coordinates": [
          97.875,
          6.208333333333333
        ]
      },
      "properties": {
        "score_var": "temporal_memory_confidence_adjusted",
        "temporal_memory_confidence_adjusted": 0.4561750525397804,
        "today_physics_support_score": null,
        "weighted_physics_support_score": 0.2512114100122107,
        "persistence_score": 1.0,
        "stability_score": 1.0,
        "temporal_confidence": 0.52,
        "label": "FGI v0.7 temporal memory candidate",
        "note": "GeoJSON uses confidence-adjusted temporal memory when available."
      }
    },
    {
      "type": "Feature",
      "geometry": {
        "type": "Point",
        "coordinates": [
          97.625,
          6.124999999999998
        ]
      },
      "properties": {
        "score_var": "temporal_memory_confidence_adjusted",
        "temporal_memory_confidence_adjusted": 0.45508340141320486,
        "today_physics_support_score": null,
        "weighted_physics_support_score": 0.24768540508141101,
        "persistence_score": 1.0,
        "stability_score": 1.0,
        "temporal_confidence": 0.52,
        "label": "FGI v0.7 temporal memory candidate",
        "note": "GeoJSON uses confidence-adjusted temporal memory when available."
      }
    },
    {
      "type": "Feature",
      "geometry": {
        "type": "Point",
        "coordinates": [
          97.79166666666666,
          6.041666666666666
        ]
      },
      "properties": {
        "score_var": "temporal_memory_confidence_adjusted",
        "temporal_memory_confidence_adjusted": 0.45307064684928755,
        "today_physics_support_score": null,
        "weighted_physics_support_score": 0.24118425984912006,
        "persistence_score": 1.0,
        "stability_score": 1.0,
        "temporal_confidence": 0.52,
        "label": "FGI v0.7 temporal memory candidate",
        "note": "GeoJSON uses confidence-adjusted temporal memory when available."
      }
    },
    {
      "type": "Feature",
      "geometry": {
        "type": "Point",
        "coordinates": [
          97.95833333333333,
          6.458333333333333
        ]
      },
      "properties": {
        "score_var": "temporal_memory_confidence_adjusted",
        "temporal_memory_confidence_adjusted": 0.4519869689214247,
        "today_physics_support_score": null,
        "weighted_physics_support_score": 0.23768400814413695,
        "persistence_score": 1.0,
        "stability_score": 1.0,
        "temporal_confidence": 0.52,
        "label": "FGI v0.7 temporal memory candidate",
        "note": "GeoJSON uses confidence-adjusted temporal memory when available."
      }
    },
    {
      "type": "Feature",
      "geometry": {
        "type": "Point",
        "coordinates": [
          97.70833333333333,
          5.791666666666666
        ]
      },
      "properties": {
        "score_var": "temporal_memory_confidence_adjusted",
        "temporal_memory_confidence_adjusted": 0.4518672851718118,
        "today_physics_support_score": null,
        "weighted_physics_support_score": 0.23729743272549048,
        "persistence_score": 1.0,
        "stability_score": 1.0,
        "temporal_confidence": 0.52,
        "label": "FGI v0.7 temporal memory candidate",
        "note": "GeoJSON uses confidence-adjusted temporal memory when available."
      }
    },
    {
      "type": "Feature",
      "geometry": {
        "type": "Point",
        "coordinates": [
          98.54166666666666,
          6.291666666666666
        ]
      },
      "properties": {
        "score_var": "temporal_memory_confidence_adjusted",
        "temporal_memory_confidence_adjusted": 0.4516790701401584,
        "today_physics_support_score": null,
        "weighted_physics_support_score": 0.23668950303668743,
        "persistence_score": 1.0,
        "stability_score": 1.0,
        "temporal_confidence": 0.52,
        "label": "FGI v0.7 temporal memory candidate",
        "note": "GeoJSON uses confidence-adjusted temporal memory when available."
      }
    },
    {
      "type": "Feature",
      "geometry": {
        "type": "Point",
        "coordinates": [
          97.875,
          6.041666666666666
        ]
      },
      "properties": {
        "score_var": "temporal_memory_confidence_adjusted",
        "temporal_memory_confidence_adjusted": 0.4513858497218956,
        "today_physics_support_score": null,
        "weighted_physics_support_score": 0.2357424086624535,
        "persistence_score": 1.0,
        "stability_score": 1.0,
        "temporal_confidence": 0.52,
        "label": "FGI v0.7 temporal memory candidate",
        "note": "GeoJSON uses confidence-adjusted temporal memory when available."
      }
    },
    {
      "type": "Feature",
      "geometry": {
        "type": "Point",
        "coordinates": [
          97.95833333333333,
          5.958333333333333
        ]
      },
      "properties": {
        "score_var": "temporal_memory_confidence_adjusted",
        "temporal_memory_confidence_adjusted": 0.4510811325180173,
        "today_physics_support_score": null,
        "weighted_physics_support_score": 0.2347581799677564,
        "persistence_score": 1.0,
        "stability_score": 1.0,
        "temporal_confidence": 0.52,
        "label": "FGI v0.7 temporal memory candidate",
        "note": "GeoJSON uses confidence-adjusted temporal memory when available."
      }
    },
    {
      "type": "Feature",
      "geometry": {
        "type": "Point",
        "coordinates": [
          97.625,
          5.958333333333333
        ]
      },
      "properties": {
        "score_var": "temporal_memory_confidence_adjusted",
        "temporal_memory_confidence_adjusted": 0.45097354717640686,
        "today_physics_support_score": null,
        "weighted_physics_support_score": 0.23441068209433763,
        "persistence_score": 1.0,
        "stability_score": 1.0,
        "temporal_confidence": 0.52,
        "label": "FGI v0.7 temporal memory candidate",
        "note": "GeoJSON uses confidence-adjusted temporal memory when available."
      }
    },
    {
      "type": "Feature",
      "geometry": {
        "type": "Point",
        "coordinates": [
          97.95833333333333,
          6.291666666666666
        ]
      },
      "properties": {
        "score_var": "temporal_memory_confidence_adjusted",
        "temporal_memory_confidence_adjusted": 0.4509025664524882,
        "today_physics_support_score": null,
        "weighted_physics_support_score": 0.23418141619020738,
        "persistence_score": 1.0,
        "stability_score": 1.0,
        "temporal_confidence": 0.52,
        "label": "FGI v0.7 temporal memory candidate",
        "note": "GeoJSON uses confidence-adjusted temporal memory when available."
      }
    },
    {
      "type": "Feature",
      "geometry": {
        "type": "Point",
        "coordinates": [
          98.29166666666666,
          5.958333333333333
        ]
      },
      "properties": {
        "score_var": "temporal_memory_confidence_adjusted",
        "temporal_memory_confidence_adjusted": 0.4509025412216279,
        "today_physics_support_score": null,
        "weighted_physics_support_score": 0.23418133469518043,
        "persistence_score": 1.0,
        "stability_score": 1.0,
        "temporal_confidence": 0.52,
        "label": "FGI v0.7 temporal memory candidate",
        "note": "GeoJSON uses confidence-adjusted temporal memory when available."
      }
    },
    {
      "type": "Feature",
      "geometry": {
        "type": "Point",
        "coordinates": [
          97.95833333333333,
          5.791666666666666
        ]
      },
      "properties": {
        "score_var": "temporal_memory_confidence_adjusted",
        "temporal_memory_confidence_adjusted": 0.45033522185281966,
        "today_physics_support_score": null,
        "weighted_physics_support_score": 0.23234890779334536,
        "persistence_score": 1.0,
        "stability_score": 1.0,
        "temporal_confidence": 0.52,
        "label": "FGI v0.7 temporal memory candidate",
        "note": "GeoJSON uses confidence-adjusted temporal memory when available."
      }
    },
    {
      "type": "Feature",
      "geometry": {
        "type": "Point",
        "coordinates": [
          98.70833333333333,
          6.208333333333333
        ]
      },
      "properties": {
        "score_var": "temporal_memory_confidence_adjusted",
        "temporal_memory_confidence_adjusted": 0.4503195387846355,
        "today_physics_support_score": null,
        "weighted_physics_support_score": 0.2322982518883575,
        "persistence_score": 1.0,
        "stability_score": 1.0,
        "temporal_confidence": 0.52,
        "label": "FGI v0.7 temporal memory candidate",
        "note": "GeoJSON uses confidence-adjusted temporal memory when available."
      }
    },
    {
      "type": "Feature",
      "geometry": {
        "type": "Point",
        "coordinates": [
          98.54166666666666,
          6.208333333333333
        ]
      },
      "properties": {
        "score_var": "temporal_memory_confidence_adjusted",
        "temporal_memory_confidence_adjusted": 0.4500391499349291,
        "today_physics_support_score": null,
        "weighted_physics_support_score": 0.23139260314899598,
        "persistence_score": 1.0,
        "stability_score": 1.0,
        "temporal_confidence": 0.52,
        "label": "FGI v0.7 temporal memory candidate",
        "note": "GeoJSON uses confidence-adjusted temporal memory when available."
      }
    },
    {
      "type": "Feature",
      "geometry": {
        "type": "Point",
        "coordinates": [
          98.125,
          5.874999999999998
        ]
      },
      "properties": {
        "score_var": "temporal_memory_confidence_adjusted",
        "temporal_memory_confidence_adjusted": 0.4499811332148535,
        "today_physics_support_score": null,
        "weighted_physics_support_score": 0.23120521064229177,
        "persistence_score": 1.0,
        "stability_score": 1.0,
        "temporal_confidence": 0.52,
        "label": "FGI v0.7 temporal memory candidate",
        "note": "GeoJSON uses confidence-adjusted temporal memory when available."
      }
    },
    {
      "type": "Feature",
      "geometry": {
        "type": "Point",
        "coordinates": [
          97.875,
          6.124999999999998
        ]
      },
      "properties": {
        "score_var": "temporal_memory_confidence_adjusted",
        "temporal_memory_confidence_adjusted": 0.4498892997476726,
        "today_physics_support_score": null,
        "weighted_physics_support_score": 0.23090859091625518,
        "persistence_score": 1.0,
        "stability_score": 1.0,
        "temporal_confidence": 0.52,
        "label": "FGI v0.7 temporal memory candidate",
        "note": "GeoJSON uses confidence-adjusted temporal memory when available."
      }
    },
    {
      "type": "Feature",
      "geometry": {
        "type": "Point",
        "coordinates": [
          97.79166666666666,
          5.791666666666666
        ]
      },
      "properties": {
        "score_var": "temporal_memory_confidence_adjusted",
        "temporal_memory_confidence_adjusted": 0.4498633954193604,
        "today_physics_support_score": null,
        "weighted_physics_support_score": 0.2308249206051695,
        "persistence_score": 1.0,
        "stability_score": 1.0,
        "temporal_confidence": 0.52,
        "label": "FGI v0.7 temporal memory candidate",
        "note": "GeoJSON uses confidence-adjusted temporal memory when available."
      }
    },
    {
      "type": "Feature",
      "geometry": {
        "type": "Point",
        "coordinates": [
          98.125,
          6.291666666666666
        ]
      },
      "properties": {
        "score_var": "temporal_memory_confidence_adjusted",
        "temporal_memory_confidence_adjusted": 0.4497097555292407,
        "today_physics_support_score": null,
        "weighted_physics_support_score": 0.23032866773010566,
        "persistence_score": 1.0,
        "stability_score": 1.0,
        "temporal_confidence": 0.52,
        "label": "FGI v0.7 temporal memory candidate",
        "note": "GeoJSON uses confidence-adjusted temporal memory when available."
      }
    },
    {
      "type": "Feature",
      "geometry": {
        "type": "Point",
        "coordinates": [
          98.04166666666666,
          5.791666666666666
        ]
      },
      "properties": {
        "score_var": "temporal_memory_confidence_adjusted",
        "temporal_memory_confidence_adjusted": 0.4495815705765128,
        "today_physics_support_score": null,
        "weighted_physics_support_score": 0.22991463364506748,
        "persistence_score": 1.0,
        "stability_score": 1.0,
        "temporal_confidence": 0.52,
        "label": "FGI v0.7 temporal memory candidate",
        "note": "GeoJSON uses confidence-adjusted temporal memory when available."
      }
    },
    {
      "type": "Feature",
      "geometry": {
        "type": "Point",
        "coordinates": [
          97.70833333333333,
          5.708333333333333
        ]
      },
      "properties": {
        "score_var": "temporal_memory_confidence_adjusted",
        "temporal_memory_confidence_adjusted": 0.4494523248507645,
        "today_physics_support_score": null,
        "weighted_physics_support_score": 0.22949717329058303,
        "persistence_score": 1.0,
        "stability_score": 1.0,
        "temporal_confidence": 0.52,
        "label": "FGI v0.7 temporal memory candidate",
        "note": "GeoJSON uses confidence-adjusted temporal memory when available."
      }
    },
    {
      "type": "Feature",
      "geometry": {
        "type": "Point",
        "coordinates": [
          98.625,
          6.458333333333333
        ]
      },
      "properties": {
        "score_var": "temporal_memory_confidence_adjusted",
        "temporal_memory_confidence_adjusted": 0.4494129163842683,
        "today_physics_support_score": null,
        "weighted_physics_support_score": 0.22936988496210708,
        "persistence_score": 1.0,
        "stability_score": 1.0,
        "temporal_confidence": 0.52,
        "label": "FGI v0.7 temporal memory candidate",
        "note": "GeoJSON uses confidence-adjusted temporal memory when available."
      }
    },
    {
      "type": "Feature",
      "geometry": {
        "type": "Point",
        "coordinates": [
          98.625,
          6.291666666666666
        ]
      },
      "properties": {
        "score_var": "temporal_memory_confidence_adjusted",
        "temporal_memory_confidence_adjusted": 0.44930804966306875,
        "today_physics_support_score": null,
        "weighted_physics_support_score": 0.229031168162367,
        "persistence_score": 1.0,
        "stability_score": 1.0,
        "temporal_confidence": 0.52,
        "label": "FGI v0.7 temporal memory candidate",
        "note": "GeoJSON uses confidence-adjusted temporal memory when available."
      }
    },
    {
      "type": "Feature",
      "geometry": {
        "type": "Point",
        "coordinates": [
          97.95833333333333,
          6.624999999999998
        ]
      },
      "properties": {
        "score_var": "temporal_memory_confidence_adjusted",
        "temporal_memory_confidence_adjusted": 0.44892156601807776,
        "today_physics_support_score": null,
        "weighted_physics_support_score": 0.2277828359757034,
        "persistence_score": 1.0,
        "stability_score": 1.0,
        "temporal_confidence": 0.52,
        "label": "FGI v0.7 temporal memory candidate",
        "note": "GeoJSON uses confidence-adjusted temporal memory when available."
      }
    },
    {
      "type": "Feature",
      "geometry": {
        "type": "Point",
        "coordinates": [
          97.625,
          6.291666666666666
        ]
      },
      "properties": {
        "score_var": "temporal_memory_confidence_adjusted",
        "temporal_memory_confidence_adjusted": 0.4487569527341459,
        "today_physics_support_score": null,
        "weighted_physics_support_score": 0.2272511393221767,
        "persistence_score": 1.0,
        "stability_score": 1.0,
        "temporal_confidence": 0.52,
        "label": "FGI v0.7 temporal memory candidate",
        "note": "GeoJSON uses confidence-adjusted temporal memory when available."
      }
    },
    {
      "type": "Feature",
      "geometry": {
        "type": "Point",
        "coordinates": [
          97.625,
          6.041666666666666
        ]
      },
      "properties": {
        "score_var": "temporal_memory_confidence_adjusted",
        "temporal_memory_confidence_adjusted": 0.4486610751336302,
        "today_physics_support_score": null,
        "weighted_physics_support_score": 0.22694145714996838,
        "persistence_score": 1.0,
        "stability_score": 1.0,
        "temporal_confidence": 0.52,
        "label": "FGI v0.7 temporal memory candidate",
        "note": "GeoJSON uses confidence-adjusted temporal memory when available."
      }
    },
    {
      "type": "Feature",
      "geometry": {
        "type": "Point",
        "coordinates": [
          98.54166666666666,
          6.458333333333333
        ]
      },
      "properties": {
        "score_var": "temporal_memory_confidence_adjusted",
        "temporal_memory_confidence_adjusted": 0.44865961318032904,
        "today_physics_support_score": null,
        "weighted_physics_support_score": 0.22693673507858245,
        "persistence_score": 1.0,
        "stability_score": 1.0,
        "temporal_confidence": 0.52,
        "label": "FGI v0.7 temporal memory candidate",
        "note": "GeoJSON uses confidence-adjusted temporal memory when available."
      }
    },
    {
      "type": "Feature",
      "geometry": {
        "type": "Point",
        "coordinates": [
          97.625,
          5.791666666666666
        ]
      },
      "properties": {
        "score_var": "temporal_memory_confidence_adjusted",
        "temporal_memory_confidence_adjusted": 0.4486298788322442,
        "today_physics_support_score": null,
        "weighted_physics_support_score": 0.22684069390259776,
        "persistence_score": 1.0,
        "stability_score": 1.0,
        "temporal_confidence": 0.52,
        "label": "FGI v0.7 temporal memory candidate",
        "note": "GeoJSON uses confidence-adjusted temporal memory when available."
      }
    },
    {
      "type": "Feature",
      "geometry": {
        "type": "Point",
        "coordinates": [
          98.125,
          6.208333333333333
        ]
      },
      "properties": {
        "score_var": "temporal_memory_confidence_adjusted",
        "temporal_memory_confidence_adjusted": 0.4483462555481765,
        "today_physics_support_score": null,
        "weighted_physics_support_score": 0.225924598023826,
        "persistence_score": 1.0,
        "stability_score": 1.0,
        "temporal_confidence": 0.52,
        "label": "FGI v0.7 temporal memory candidate",
        "note": "GeoJSON uses confidence-adjusted temporal memory when available."
      }
    },
    {
      "type": "Feature",
      "geometry": {
        "type": "Point",
        "coordinates": [
          98.70833333333333,
          6.458333333333333
        ]
      },
      "properties": {
        "score_var": "temporal_memory_confidence_adjusted",
        "temporal_memory_confidence_adjusted": 0.4482163415505791,
        "today_physics_support_score": null,
        "weighted_physics_support_score": 0.22550497916853712,
        "persistence_score": 1.0,
        "stability_score": 1.0,
        "temporal_confidence": 0.52,
        "label": "FGI v0.7 temporal memory candidate",
        "note": "GeoJSON uses confidence-adjusted temporal memory when available."
      }
    },
    {
      "type": "Feature",
      "geometry": {
        "type": "Point",
        "coordinates": [
          98.625,
          6.208333333333333
        ]
      },
      "properties": {
        "score_var": "temporal_memory_confidence_adjusted",
        "temporal_memory_confidence_adjusted": 0.4480548405522859,
        "today_physics_support_score": null,
        "weighted_physics_support_score": 0.22498333511720242,
        "persistence_score": 1.0,
        "stability_score": 1.0,
        "temporal_confidence": 0.52,
        "label": "FGI v0.7 temporal memory candidate",
        "note": "GeoJSON uses confidence-adjusted temporal memory when available."
      }
    },
    {
      "type": "Feature",
      "geometry": {
        "type": "Point",
        "coordinates": [
          98.20833333333333,
          5.958333333333333
        ]
      },
      "properties": {
        "score_var": "temporal_memory_confidence_adjusted",
        "temporal_memory_confidence_adjusted": 0.44804341895085587,
        "today_physics_support_score": null,
        "weighted_physics_support_score": 0.22494644363971533,
        "persistence_score": 1.0,
        "stability_score": 1.0,
        "temporal_confidence": 0.52,
        "label": "FGI v0.7 temporal memory candidate",
        "note": "GeoJSON uses confidence-adjusted temporal memory when available."
      }
    },
    {
      "type": "Feature",
      "geometry": {
        "type": "Point",
        "coordinates": [
          97.95833333333333,
          6.124999999999998
        ]
      },
      "properties": {
        "score_var": "temporal_memory_confidence_adjusted",
        "temporal_memory_confidence_adjusted": 0.44779815810061485,
        "today_physics_support_score": null,
        "weighted_physics_support_score": 0.22415425743092648,
        "persistence_score": 1.0,
        "stability_score": 1.0,
        "temporal_confidence": 0.52,
        "label": "FGI v0.7 temporal memory candidate",
        "note": "GeoJSON uses confidence-adjusted temporal memory when available."
      }
    },
    {
      "type": "Feature",
      "geometry": {
        "type": "Point",
        "coordinates": [
          97.54166666666666,
          5.874999999999998
        ]
      },
      "properties": {
        "score_var": "temporal_memory_confidence_adjusted",
        "temporal_memory_confidence_adjusted": 0.44764452877790983,
        "today_physics_support_score": null,
        "weighted_physics_support_score": 0.22365803868833947,
        "persistence_score": 1.0,
        "stability_score": 1.0,
        "temporal_confidence": 0.52,
        "label": "FGI v0.7 temporal memory candidate",
        "note": "GeoJSON uses confidence-adjusted temporal memory when available."
      }
    },
    {
      "type": "Feature",
      "geometry": {
        "type": "Point",
        "coordinates": [
          97.54166666666666,
          6.208333333333333
        ]
      },
      "properties": {
        "score_var": "temporal_memory_confidence_adjusted",
        "temporal_memory_confidence_adjusted": 0.4473839471392745,
        "today_physics_support_score": null,
        "weighted_physics_support_score": 0.2228163667289229,
        "persistence_score": 1.0,
        "stability_score": 1.0,
        "temporal_confidence": 0.52,
        "label": "FGI v0.7 temporal memory candidate",
        "note": "GeoJSON uses confidence-adjusted temporal memory when available."
      }
    },
    {
      "type": "Feature",
      "geometry": {
        "type": "Point",
        "coordinates": [
          98.04166666666666,
          5.874999999999998
        ]
      },
      "properties": {
        "score_var": "temporal_memory_confidence_adjusted",
        "temporal_memory_confidence_adjusted": 0.44737757533286976,
        "today_physics_support_score": null,
        "weighted_physics_support_score": 0.22279578595888186,
        "persistence_score": 1.0,
        "stability_score": 1.0,
        "temporal_confidence": 0.52,
        "label": "FGI v0.7 temporal memory candidate",
        "note": "GeoJSON uses confidence-adjusted temporal memory when available."
      }
    },
    {
      "type": "Feature",
      "geometry": {
        "type": "Point",
        "coordinates": [
          97.95833333333333,
          6.041666666666666
        ]
      },
      "properties": {
        "score_var": "temporal_memory_confidence_adjusted",
        "temporal_memory_confidence_adjusted": 0.4473369016187245,
        "today_physics_support_score": null,
        "weighted_physics_support_score": 0.22266441091319317,
        "persistence_score": 1.0,
        "stability_score": 1.0,
        "temporal_confidence": 0.52,
        "label": "FGI v0.7 temporal memory candidate",
        "note": "GeoJSON uses confidence-adjusted temporal memory when available."
      }
    },
    {
      "type": "Feature",
      "geometry": {
        "type": "Point",
        "coordinates": [
          98.70833333333333,
          6.124999999999998
        ]
      },
      "properties": {
        "score_var": "temporal_memory_confidence_adjusted",
        "temporal_memory_confidence_adjusted": 0.4473292437216296,
        "today_physics_support_score": null,
        "weighted_physics_support_score": 0.22263967610345478,
        "persistence_score": 1.0,
        "stability_score": 1.0,
        "temporal_confidence": 0.52,
        "label": "FGI v0.7 temporal memory candidate",
        "note": "GeoJSON uses confidence-adjusted temporal memory when available."
      }
    },
    {
      "type": "Feature",
      "geometry": {
        "type": "Point",
        "coordinates": [
          95.375,
          2.958333333333333
        ]
      },
      "properties": {
        "score_var": "temporal_memory_confidence_adjusted",
        "temporal_memory_confidence_adjusted": 0.4472552155554193,
        "today_physics_support_score": null,
        "weighted_physics_support_score": 0.22240056703946834,
        "persistence_score": 1.0,
        "stability_score": 1.0,
        "temporal_confidence": 0.52,
        "label": "FGI v0.7 temporal memory candidate",
        "note": "GeoJSON uses confidence-adjusted temporal memory when available."
      }
    },
    {
      "type": "Feature",
      "geometry": {
        "type": "Point",
        "coordinates": [
          97.79166666666666,
          5.708333333333333
        ]
      },
      "properties": {
        "score_var": "temporal_memory_confidence_adjusted",
        "temporal_memory_confidence_adjusted": 0.4471987888630399,
        "today_physics_support_score": null,
        "weighted_physics_support_score": 0.2222183102811367,
        "persistence_score": 1.0,
        "stability_score": 1.0,
        "temporal_confidence": 0.52,
        "label": "FGI v0.7 temporal memory candidate",
        "note": "GeoJSON uses confidence-adjusted temporal memory when available."
      }
    },
    {
      "type": "Feature",
      "geometry": {
        "type": "Point",
        "coordinates": [
          95.625,
          3.958333333333333
        ]
      },
      "properties": {
        "score_var": "temporal_memory_confidence_adjusted",
        "temporal_memory_confidence_adjusted": 0.4470819917432333,
        "today_physics_support_score": null,
        "weighted_physics_support_score": 0.22184105860217512,
        "persistence_score": 1.0,
        "stability_score": 1.0,
        "temporal_confidence": 0.52,
        "label": "FGI v0.7 temporal memory candidate",
        "note": "GeoJSON uses confidence-adjusted temporal memory when available."
      }
    },
    {
      "type": "Feature",
      "geometry": {
        "type": "Point",
        "coordinates": [
          97.875,
          6.374999999999998
        ]
      },
      "properties": {
        "score_var": "temporal_memory_confidence_adjusted",
        "temporal_memory_confidence_adjusted": 0.4467484191828151,
        "today_physics_support_score": null,
        "weighted_physics_support_score": 0.22076362785147008,
        "persistence_score": 1.0,
        "stability_score": 1.0,
        "temporal_confidence": 0.52,
        "label": "FGI v0.7 temporal memory candidate",
        "note": "GeoJSON uses confidence-adjusted temporal memory when available."
      }
    },
    {
      "type": "Feature",
      "geometry": {
        "type": "Point",
        "coordinates": [
          95.125,
          6.124999999999998
        ]
      },
      "properties": {
        "score_var": "temporal_memory_confidence_adjusted",
        "temporal_memory_confidence_adjusted": 0.44652548027016453,
        "today_physics_support_score": null,
        "weighted_physics_support_score": 0.22004354092430423,
        "persistence_score": 1.0,
        "stability_score": 1.0,
        "temporal_confidence": 0.52,
        "label": "FGI v0.7 temporal memory candidate",
        "note": "GeoJSON uses confidence-adjusted temporal memory when available."
      }
    },
    {
      "type": "Feature",
      "geometry": {
        "type": "Point",
        "coordinates": [
          95.625,
          3.8749999999999987
        ]
      },
      "properties": {
        "score_var": "temporal_memory_confidence_adjusted",
        "temporal_memory_confidence_adjusted": 0.3235316926311891,
        "today_physics_support_score": null,
        "weighted_physics_support_score": 0.1845212046066232,
        "persistence_score": 0.5,
        "stability_score": 0.8216529595514755,
        "temporal_confidence": 0.64,
        "label": "FGI v0.7 temporal memory candidate",
        "note": "GeoJSON uses confidence-adjusted temporal memory when available."
      }
    }
  ]
}